{"type": "FeatureCollection", "features": [ {"type": "Feature", "properties": {"norad_id": 34001, "name": "COSMOS 2251 DEB", "group": "cosmos-2251-debris", "lat": 73.66485362393206, "lon": 24.94906467015266, "alt_km": 760.6482535921195, "timestamp": "2025-12-12T05:47:29.164710+00:00", "meta": {"OBJECT_NAME": "COSMOS 2251 DEB", "OBJECT_ID": "1993-036GL", "EPOCH": "2025-12-11T22:59:58.976736", "MEAN_MOTION": 14.37097025, "ECCENTRICITY": 0.00199318, "INCLINATION": 74.0387, "RA_OF_ASC_NODE": 283.024, "ARG_OF_PERICENTER": 4.1697, "MEAN_ANOMALY": 65.6059, "EPHEMERIS_TYPE": 0, "CLASSIFICATION_TYPE": "U", "NORAD_CAT_ID": 34001, "ELEMENT_SET_NO": 999, "REV_AT_EPOCH": 88135, "BSTAR": 0.00033644124, "MEAN_MOTION_DOT": 9.75e-06, "MEAN_MOTION_DDOT": 0}, "tle": {"line1": "1 34001U 93036GL  25345.95832149  .00000975  00000+0  33644-3 0  9992", "line2": "2 34001  74.0387 283.0240 0019931   4.1697  65.6059 14.37097025881352"}}, "geometry": {"type": "Point", "coordinates": [24.94906467015266, 73.66485362393206]}}, {"type": "Feature", "properties": {"norad_id": 34003, "name": "COSMOS 2251 DEB", "group": "cosmos-2251-debris", "lat": 69.79180745680563, "lon": -23.167844100455806, "alt_km": 784.4711160433117, "timestamp": "2025-12-12T05:47:29.164720+00:00", "meta": {"OBJECT_NAME": "COSMOS 2251 DEB", "OBJECT_ID": "1993-036GN", "EPOCH": "2025-12-11T06:53:17.656224", "MEAN_MOTION": 13.84139555, "ECCENTRICITY": 0.02741843, "INCLINATION": 74.0781, "RA_OF_ASC_NODE": 287.5892, "ARG_OF_PERICENTER": 39.9418, "MEAN_ANOMALY": 322.1527, "EPHEMERIS_TYPE": 0, "CLASSIFICATION_TYPE": "U", "NORAD_CAT_ID": 34003, "ELEMENT_SET_NO": 999, "REV_AT_EPOCH": 84405, "BSTAR": 0.0035582926, "MEAN_MOTION_DOT": 5.284e-05, "MEAN_MOTION_DDOT": 0}, "tle": {"line1": "1 34003U 93036GN  25345.28700991  .00005284  00000+0  35583-2 0  9990", "line2": "2 34003  74.0781 287.5892 0274184  39.9418 322.1527 13.84139555844057"}}, "geometry": {"type": "Point", "coordinates": [-23.167844100455806, 69.79180745680563]}}, {"type": "Feature", "properties": {"norad_id": 34004, "name": "COSMOS 2251 DEB", "group": "cosmos-2251-debris", "lat": -40.35737796425155, "lon": -60.034337812625964, "alt_km": 711.622082158653, "timestamp": "2025-12-12T05:47:29.164730+00:00", "meta": {"OBJECT_NAME": "COSMOS 2251 DEB", "OBJECT_ID": "1993-036GP", "EPOCH": "2025-12-11T23:21:26.138016", "MEAN_MOTION": 14.48998167, "ECCENTRICITY": 0.00333744, "INCLINATION": 74.0358, "RA_OF_ASC_NODE": 314.5469, "ARG_OF_PERICENTER": 326.8525, "MEAN_ANOMALY": 33.0543, "EPHEMERIS_TYPE": 0, "CLASSIFICATION_TYPE": "U", "NORAD_CAT_ID": 34004, "ELEMENT_SET_NO": 999, "REV_AT_EPOCH": 88019, "BSTAR": 0.0021187604, "MEAN_MOTION_DOT": 8.073e-05, "MEAN_MOTION_DDOT": 0}, "tle": {"line1": "1 34004U 93036GP  25345.97321919  .00008073  00000+0  21188-2 0  9991", "line2": "2 34004  74.0358 314.5469 0033374 326.8525  33.0543 14.48998167880194"}}, "geometry": {"type": "Point", "coordinates": [-60.034337812625964, -40.35737796425155]}}, {"type": "Feature", "properties": {"norad_id": 34005, "name": "COSMOS 2251 DEB", "group": "cosmos-2251-debris", "lat": -62.17666743276034, "lon": 67.3942726096117, "alt_km": 763.2334275056646, "timestamp": "2025-12-12T05:47:29.164740+00:00", "meta": {"OBJECT_NAME": "COSMOS 2251 DEB", "OBJECT_ID": "1993-036GQ", "EPOCH": "2025-12-12T00:11:46.377888", "MEAN_MOTION": 14.40303544, "ECCENTRICITY": 0.00208208, "INCLINATION": 74.0444, "RA_OF_ASC_NODE": 214.999, "ARG_OF_PERICENTER": 333.2688, "MEAN_ANOMALY": 145.4934, "EPHEMERIS_TYPE": 0, "CLASSIFICATION_TYPE": "U", "NORAD_CAT_ID": 34005, "ELEMENT_SET_NO": 999, "REV_AT_EPOCH": 88368, "BSTAR": 0.00015920479, "MEAN_MOTION_DOT": 4.79e-06, "MEAN_MOTION_DDOT": 0}, "tle": {"line1": "1 34005U 93036GQ  25346.00817567  .00000479  00000+0  15920-3 0  9996", "line2": "2 34005  74.0444 214.9990 0020820 333.2688 145.4934 14.40303544883687"}}, "geometry": {"type": "Point", "coordinates": [67.3942726096117, -62.17666743276034]}}, {"type": "Feature", "properties": {"norad_id": 34006, "name": "COSMOS 2251 DEB", "group": "cosmos-2251-debris", "lat": 51.61476577641281, "lon": 165.44632661515374, "alt_km": 571.6151828942284, "timestamp": "2025-12-12T05:47:29.164750+00:00", "meta": {"OBJECT_NAME": "COSMOS 2251 DEB", "OBJECT_ID": "1993-036GR", "EPOCH": "2025-12-11T12:07:42.635712", "MEAN_MOTION": 14.94623961, "ECCENTRICITY": 0.00116095, "INCLINATION": 74.0543, "RA_OF_ASC_NODE": 145.7703, "ARG_OF_PERICENTER": 93.3053, "MEAN_ANOMALY": 323.0725, "EPHEMERIS_TYPE": 0, "CLASSIFICATION_TYPE": "U", "NORAD_CAT_ID": 34006, "ELEMENT_SET_NO": 999, "REV_AT_EPOCH": 88650, "BSTAR": 0.0068858071, "MEAN_MOTION_DOT": 0.00075469, "MEAN_MOTION_DDOT": 0}, "tle": {"line1": "1 34006U 93036GR  25345.50535458  .00075469  00000+0  68858-2 0  9995", "line2": "2 34006  74.0543 145.7703 0011609  93.3053 323.0725 14.94623961886509"}}, "geometry": {"type": "Point", "coordinates": [165.44632661515374, 51.61476577641281]}}, {"type": "Feature", "properties": {"norad_id": 34007, "name": "COSMOS 2251 DEB", "group": "cosmos-2251-debris", "lat": 43.17318647125815, "lon": 3.451897557632938, "alt_km": 666.9686269210824, "timestamp": "2025-12-12T05:47:29.164760+00:00", "meta": {"OBJECT_NAME": "COSMOS 2251 DEB", "OBJECT_ID": "1993-036GS", "EPOCH": "2025-12-12T00:40:02.076384", "MEAN_MOTION": 14.64778028, "ECCENTRICITY": 0.00443082, "INCLINATION": 74.0197, "RA_OF_ASC_NODE": 348.2669, "ARG_OF_PERICENTER": 123.4541, "MEAN_ANOMALY": 237.0876, "EPHEMERIS_TYPE": 0, "CLASSIFICATION_TYPE": "U", "NORAD_CAT_ID": 34007, "ELEMENT_SET_NO": 999, "REV_AT_EPOCH": 89069, "BSTAR": 0.0010664514, "MEAN_MOTION_DOT": 5.742e-05, "MEAN_MOTION_DDOT": 0}, "tle": {"line1": "1 34007U 93036GS  25346.02780181  .00005742  00000+0  10665-2 0  9999", "line2": "2 34007  74.0197 348.2669 0044308 123.4541 237.0876 14.64778028890693"}}, "geometry": {"type": "Point", "coordinates": [3.451897557632938, 43.17318647125815]}}, {"type": "Feature", "properties": {"norad_id": 34008, "name": "COSMOS 2251 DEB", "group": "cosmos-2251-debris", "lat": 12.716466848123927, "lon": 147.72532173129318, "alt_km": 798.3929479486915, "timestamp": "2025-12-12T05:47:29.164770+00:00", "meta": {"OBJECT_NAME": "COSMOS 2251 DEB", "OBJECT_ID": "1993-036GT", "EPOCH": "2025-12-12T00:14:54.722976", "MEAN_MOTION": 14.3314554, "ECCENTRICITY": 0.00242897, "INCLINATION": 74.0342, "RA_OF_ASC_NODE": 331.8513, "ARG_OF_PERICENTER": 327.2038, "MEAN_ANOMALY": 88.4557, "EPHEMERIS_TYPE": 0, "CLASSIFICATION_TYPE": "U", "NORAD_CAT_ID": 34008, "ELEMENT_SET_NO": 999, "REV_AT_EPOCH": 87954, "BSTAR": 0.00019968658, "MEAN_MOTION_DOT": 5.24e-06, "MEAN_MOTION_DDOT": 0}, "tle": {"line1": "1 34008U 93036GT  25346.01035559  .00000524  00000+0  19969-3 0  9991", "line2": "2 34008  74.0342 331.8513 0024289 327.2038  88.4557 14.33145540879541"}}, "geometry": {"type": "Point", "coordinates": [147.72532173129318, 12.716466848123927]}}, {"type": "Feature", "properties": {"norad_id": 34009, "name": "COSMOS 2251 DEB", "group": "cosmos-2251-debris", "lat": -21.87768702089167, "lon": 164.44755439904515, "alt_km": 803.1357564252357, "timestamp": "2025-12-12T05:47:29.164780+00:00", "meta": {"OBJECT_NAME": "COSMOS 2251 DEB", "OBJECT_ID": "1993-036GU", "EPOCH": "2025-12-12T00:07:57.392832", "MEAN_MOTION": 14.33221253, "ECCENTRICITY": 0.00264832, "INCLINATION": 74.037, "RA_OF_ASC_NODE": 338.2784, "ARG_OF_PERICENTER": 48.1365, "MEAN_ANOMALY": 18.3653, "EPHEMERIS_TYPE": 0, "CLASSIFICATION_TYPE": "U", "NORAD_CAT_ID": 34009, "ELEMENT_SET_NO": 999, "REV_AT_EPOCH": 87935, "BSTAR": 0.00021746387, "MEAN_MOTION_DOT": 5.74e-06, "MEAN_MOTION_DDOT": 0}, "tle": {"line1": "1 34009U 93036GU  25346.00552538  .00000574  00000+0  21746-3 0  9993", "line2": "2 34009  74.0370 338.2784 0026483  48.1365  18.3653 14.33221253879358"}}, "geometry": {"type": "Point", "coordinates": [164.44755439904515, -21.87768702089167]}}, {"type": "Feature", "properties": {"norad_id": 34010, "name": "COSMOS 2251 DEB", "group": "cosmos-2251-debris", "lat": -70.4071235796378, "lon": -129.3820107222553, "alt_km": 520.0097212390383, "timestamp": "2025-12-12T05:47:29.164790+00:00", "meta": {"OBJECT_NAME": "COSMOS 2251 DEB", "OBJECT_ID": "1993-036GV", "EPOCH": "2025-12-11T20:38:58.728480", "MEAN_MOTION": 15.1842534, "ECCENTRICITY": 0.00049387, "INCLINATION": 73.9971, "RA_OF_ASC_NODE": 285.1527, "ARG_OF_PERICENTER": 66.3934, "MEAN_ANOMALY": 293.778, "EPHEMERIS_TYPE": 0, "CLASSIFICATION_TYPE": "U", "NORAD_CAT_ID": 34010, "ELEMENT_SET_NO": 999, "REV_AT_EPOCH": 89272, "BSTAR": 0.0055462981, "MEAN_MOTION_DOT": 0.00116043, "MEAN_MOTION_DDOT": 0}, "tle": {"line1": "1 34010U 93036GV  25345.86040195  .00116043  00000+0  55463-2 0  9990", "line2": "2 34010  73.9971 285.1527 0004938  66.3934 293.7780 15.18425340892728"}}, "geometry": {"type": "Point", "coordinates": [-129.3820107222553, -70.4071235796378]}}, {"type": "Feature", "properties": {"norad_id": 34011, "name": "COSMOS 2251 DEB", "group": "cosmos-2251-debris", "lat": -12.411782977366489, "lon": 154.69140978877974, "alt_km": 775.5588666622025, "timestamp": "2025-12-12T05:47:29.164800+00:00", "meta": {"OBJECT_NAME": "COSMOS 2251 DEB", "OBJECT_ID": "1993-036GW", "EPOCH": "2025-12-11T23:54:25.193952", "MEAN_MOTION": 14.4176453, "ECCENTRICITY": 0.00355374, "INCLINATION": 74.0154, "RA_OF_ASC_NODE": 331.5293, "ARG_OF_PERICENTER": 55.2711, "MEAN_ANOMALY": 305.1783, "EPHEMERIS_TYPE": 0, "CLASSIFICATION_TYPE": "U", "NORAD_CAT_ID": 34011, "ELEMENT_SET_NO": 999, "REV_AT_EPOCH": 87905, "BSTAR": 0.0012457207, "MEAN_MOTION_DOT": 4.074e-05, "MEAN_MOTION_DDOT": 0}, "tle": {"line1": "1 34011U 93036GW  25345.99612493  .00004074  00000+0  12457-2 0  9997", "line2": "2 34011  74.0154 331.5293 0035537  55.2711 305.1783 14.41764530879053"}}, "geometry": {"type": "Point", "coordinates": [154.69140978877974, -12.411782977366489]}}]}